*******************************************************************************
 Revised: Apr 22, 2021             Despina / (Neptune)                      805

 SATELLITE PHYSICAL PROPERTIES:
  Mean radius (km)        = 74 +- 10        Mean dens (g cm^-3)= 1.0304 +- 2.27
  GM (km^3/s^2)           = 0.11673 +- 0.25 Geometric Albedo   = 0.06 
                                            V(1,0)             = +7.9 

 SATELLITE ORBITAL DATA (mean values wrt Laplace plane):
  Semi-major axis, a (km) = 52.5(10^3)      Orbital period     = 0.334656 d
  Eccentricity, e         = 0.0             Rotational period  = 
  Inclination, i  (deg)   = 0.0

 Fit to all reported data through 2020 (Voyager 2, ground, HST)
*******************************************************************************


*******************************************************************************
Ephemeris / WWW_USER Sun Jun 19 14:52:27 2022 Pasadena, USA      / Horizons    
*******************************************************************************
Target body name: Despina (805)                   {source: nep097f_merged}
Center body name: Earth-Moon Barycenter (3)       {source: DE441}
Center-site name: BODYCENTRIC
*******************************************************************************
Start time      : A.D. 2022-Jun-16 00:00:00.0000 UT      
Stop  time      : A.D. 2022-Jul-16 00:00:00.0000 UT      
Step-size       : 1440 minutes
*******************************************************************************
Target pole/equ : IAU_DESPINA                     {West-longitude positive}
Target radii    : 74.0 x 74.0 x 74.0 km           {Equator, meridian, pole}    
Center geodetic : 0.00000000,0.00000000,0.0000000 {E-lon(deg),Lat(deg),Alt(km)}
Center cylindric: 0.00000000,0.00000000,0.0000000 {E-lon(deg),Dxy(km),Dz(km)}
Center pole/equ : ICRF
Center radii    : (undefined)                                                  
Target primary  : Neptune
Vis. interferer : None
Rel. light bend : Sun, EARTH                      {source: DE441}
Rel. lght bnd GM: 1.3271E+11, 3.9860E+05 km^3/s^2                              
Atmos refraction: NO (AIRLESS)
RA format       : HMS
Time format     : CAL 
EOP file        : eop.220617.p220909                                           
EOP coverage    : DATA-BASED 1962-JAN-20 TO 2022-JUN-17. PREDICTS-> 2022-SEP-08
Units conversion: 1 au= 149597870.700 km, c= 299792.458 km/s, 1 day= 86400.0 s 
Table cut-offs 1: Elevation (-90.0deg=NO ),Airmass     n.a.    , Daylight (NO )
Table cut-offs 2: Solar elongation (  0.0,180.0=NO ),Local Hour Angle( 0.0=NO )
Table cut-offs 3: RA/DEC angular rate (     0.0=NO )                           
******************************************************************************************************************************************************************************
 Date__(UT)__HR:MN     R.A._____(ICRF)_____DEC    APmag   S-brt             delta      deldot     S-O-T /r     S-T-O  Sky_motion  Sky_mot_PA  RelVel-ANG  Lun_Sky_Brt  sky_SNR
******************************************************************************************************************************************************************************
$$SOE
 2022-Jun-16 00:00     23 43 50.44 -03 01 28.4   22.659  11.566  29.9092498038488 -39.0396382   89.4591 /T    1.9471   0.0268035   40.455049   -76.05970         n.a.     n.a.
 2022-Jun-17 00:00     23 43 51.89 -03 01 22.1   22.657  11.566  29.8924310412307 -38.7325007   90.4076 /T    1.9476   0.0276252   40.554291   -75.54845         n.a.     n.a.
 2022-Jun-18 00:00     23 43 53.23 -03 01 16.7   22.656  11.566  29.8756133978586 -38.3672481   91.3563 /T    1.9475   0.0283691   40.733116   -75.04947         n.a.     n.a.
 2022-Jun-19 00:00     23 43 54.45 -03 01 12.1   22.655  11.566  29.8588012196709 -37.9450533   92.3055 /T    1.9468   0.0290270   40.982020   -74.56507         n.a.     n.a.
 2022-Jun-20 00:00     23 43 55.55 -03 01 08.2   22.654  11.566  29.8419992976685 -37.4674239   93.2551 /T    1.9457   0.0295885   41.294032   -74.09933         n.a.     n.a.
 2022-Jun-21 00:00     23 43 56.52 -03 01 05.1   22.653  11.566  29.8252126698289 -36.9367014   94.2051 /T    1.9439   0.0300425   41.663782   -73.65715         n.a.     n.a.
 2022-Jun-22 00:00     23 43 57.38 -03 01 02.8   22.651  11.566  29.8084461493232 -36.3562968   95.1555 /T    1.9416   0.0303793   42.083557   -73.24382         n.a.     n.a.
 2022-Jun-23 00:00     23 43 58.11 -03 01 01.3   22.650  11.566  29.7917041055179 -35.7298769   96.1063 /T    1.9388   0.0305919   42.545509   -72.86372         n.a.     n.a.
 2022-Jun-24 00:00     23 43 58.72 -03 01 00.5   22.649  11.566  29.7749907229526 -35.0602433   97.0576 /T    1.9354   0.0306770   43.046915   -72.51977         n.a.     n.a.
 2022-Jun-25 00:00     23 43 59.22 -03 01 00.5   22.648  11.566  29.7583104351731 -34.3500514   98.0093 /T    1.9314   0.0306290   43.587559   -72.21646         n.a.     n.a.
 2022-Jun-26 00:00     23 43 59.59 -03 01 01.4   22.646  11.566  29.7416681252107 -33.6021140   98.9615 /T    1.9269   0.0304415   44.169495   -71.95967         n.a.     n.a.
 2022-Jun-27 00:00     23 43 59.84 -03 01 02.9   22.645  11.566  29.7250688556919 -32.8201788   99.9141 /T    1.9219   0.0301071   44.795342   -71.75721         n.a.     n.a.
 2022-Jun-28 00:00     23 43 59.97 -03 01 05.3   22.644  11.566  29.7085174250691 -32.0085206  100.8672 /T    1.9162   0.0296201   45.466303   -71.61744         n.a.     n.a.
 2022-Jun-29 00:00     23 43 59.98 -03 01 08.4   22.643  11.566  29.6920181799516 -31.1717371  101.8208 /T    1.9101   0.0289789   46.182846   -71.54786         n.a.     n.a.
 2022-Jun-30 00:00     23 43 59.87 -03 01 12.3   22.642  11.566  29.6755753287134 -30.3135005  102.7748 /T    1.9034   0.0281837   46.950753   -71.55579         n.a.     n.a.
 2022-Jul-01 00:00     23 43 59.64 -03 01 17.0   22.640  11.566  29.6591933758122 -29.4372025  103.7294 /T    1.8961   0.0272337   47.780494   -71.65028         n.a.     n.a.
 2022-Jul-02 00:00     23 43 59.30 -03 01 22.4   22.639  11.566  29.6428772590722 -28.5463684  104.6844 /T    1.8883   0.0261271   48.687174   -71.84287         n.a.     n.a.
 2022-Jul-03 00:00     23 43 58.83 -03 01 28.6   22.638  11.566  29.6266320357853 -27.6449799  105.6400 /T    1.8799   0.0248619   49.691223   -72.14767         n.a.     n.a.
 2022-Jul-04 00:00     23 43 58.24 -03 01 35.5   22.637  11.566  29.6104624388850 -26.7382444  106.5960 /T    1.8710   0.0234383   50.815023   -72.58046         n.a.     n.a.
 2022-Jul-05 00:00     23 43 57.54 -03 01 43.2   22.636  11.566  29.5943727687398 -25.8305800  107.5526 /T    1.8616   0.0218605   52.090335   -73.15617         n.a.     n.a.
 2022-Jul-06 00:00     23 43 56.72 -03 01 51.6   22.634  11.566  29.5783672335187 -24.9259407  108.5097 /T    1.8516   0.0201351   53.567922   -73.89019         n.a.     n.a.
 2022-Jul-07 00:00     23 43 55.78 -03 02 00.8   22.633  11.566  29.5624503705596 -24.0274326  109.4673 /T    1.8410   0.0182688   55.331242   -74.79946         n.a.     n.a.
 2022-Jul-08 00:00     23 43 54.72 -03 02 10.7   22.632  11.566  29.5466271247367 -23.1383873  110.4255 /T    1.8300   0.0162691   57.514740   -75.90308         n.a.     n.a.
 2022-Jul-09 00:00     23 43 53.55 -03 02 21.4   22.631  11.566  29.5309024991840 -22.2630541  111.3842 /T    1.8183   0.0141465   60.344227   -77.22003         n.a.     n.a.
 2022-Jul-10 00:00     23 43 52.26 -03 02 32.7   22.630  11.566  29.5152811219988 -21.4059808  112.3435 /T    1.8062   0.0119216   64.225434   -78.76173         n.a.     n.a.
 2022-Jul-11 00:00     23 43 50.86 -03 02 44.8   22.629  11.566  29.4997672047391 -20.5711936  113.3033 /T    1.7935   0.0096345   69.966792   -80.51857         n.a.     n.a.
 2022-Jul-12 00:00     23 43 49.34 -03 02 57.7   22.628  11.566  29.4843649105459 -19.7616211  114.2637 /T    1.7803   0.0073726   79.384160   -82.42601         n.a.     n.a.
 2022-Jul-13 00:00     23 43 47.71 -03 03 11.2   22.626  11.566  29.4690787644898 -18.9798691  115.2246 /T    1.7666   0.0053628   96.805962   -84.25247         n.a.     n.a.
 2022-Jul-14 00:00     23 43 45.97 -03 03 25.4   22.625  11.566  29.4539136605874 -18.2284414  116.1862 /T    1.7523   0.0042411   129.11111   -85.26464         n.a.     n.a.
 2022-Jul-15 00:00     23 43 44.11 -03 03 40.4   22.624  11.566  29.4388744865827 -17.5106836  117.1483 /T    1.7376   0.0048908   166.43384   -84.32394         n.a.     n.a.
 2022-Jul-16 00:00     23 43 42.14 -03 03 56.0   22.623  11.566  29.4239657111039 -16.8300887  118.1110 /T    1.7223   0.0069517   189.12075   -81.64243         n.a.     n.a.
